STARLINK-1697           
1 46546U 20070Q   22288.43999986  .00001147  00000+0  95897-4 0  9997
2 46546  53.0574 348.8131 0002307  40.1167 319.9992 15.06413241112126
STARLINK-1698           
1 46547U 20070R   22288.40218974  .00001269  00000+0  10401-3 0  9998
2 46547  53.0585 348.9740 0002272  42.8659 317.2507 15.06420004112434
STARLINK-1699           
1 46548U 20070S   22287.88343225  .00004825  00000+0  34247-3 0  9993
2 46548  53.0557 351.3108 0001859  44.6864 315.4275 15.06414423112337
STARLINK-1700           
1 46549U 20070T   22288.44369069  .00010928  00000+0  75116-3 0  9992
2 46549  53.0549 348.7973 0001563  57.6139 302.5001 15.06411116112127
STARLINK-1701           
1 46550U 20070U   22288.56165961 -.00001891  00000+0 -10812-3 0  9995
2 46550  53.0554 348.2640 0002146  38.3947 321.7194 15.06391541112453
STARLINK-1649           
1 46552U 20070W   22287.56618084  .00063886  00000+0  99339-3 0  9996
2 46552  53.0515 321.1733 0004444  48.1763 311.9626 15.53342896112736
STARLINK-1664           
1 46553U 20070X   22288.48331833  .00000657  00000+0  63022-4 0  9991
2 46553  53.0554 318.6298 0001925  48.1590 311.9563 15.06408171112856
STARLINK-1671           
1 46554U 20070Y   22288.13730318  .00001445  00000+0  11587-3 0  9999
2 46554  53.0555 335.1589 0002046  44.4220 315.6932 15.06401999112592
STARLINK-1676           
1 46556U 20070AA  22288.39578153  .00001539  00000+0  12220-3 0  9995
2 46556  53.0557 348.9952 0001990  45.9442 314.1710 15.06408083112433
STARLINK-1679           
1 46557U 20070AB  22288.50589555  .00002055  00000+0  15681-3 0  9995
2 46557  53.0546 333.5189 0001963  44.8175 315.2972 15.06405497112657
STARLINK-1680           
1 46558U 20070AC  22288.44692602  .00000093  00000+0  25136-4 0  9994
2 46558  53.0554 333.7801 0001711  49.8634 310.2505 15.06395298112649
STARLINK-1681           
1 46559U 20070AD  22287.83734190  .00000338  00000+0  41579-4 0  9997
2 46559  53.0537 321.5098 0002117  47.2753 312.8414 15.06399494112749
STARLINK-1706           
1 46560U 20070AE  22288.52801653  .00001373  00000+0  11108-3 0  9999
2 46560  53.0557 333.4175 0002135  41.2963 318.8187 15.06398602112651
STARLINK-1709           
1 46561U 20070AF  22288.14742022  .00001632  00000+0  12843-3 0  9997
2 46561  53.0554 335.1377 0002482  39.5408 320.5762 15.06399695112596
STARLINK-1714           
1 46562U 20070AG  22288.47776791 -.00001980  00000+0 -11405-3 0  9995
2 46562  53.0545 328.6182 0002023  50.8710 309.2458 15.06395962112400
STARLINK-1730           
1 46563U 20070AH  22287.86316097  .00002150  00000+0  16319-3 0  9994
2 46563  53.0550 331.4111 0001985  40.4300 319.6837 15.06408451112625
STARLINK-1733           
1 46564U 20070AJ  22288.50821552 -.00002882  00000+0 -17461-3 0  9997
2 46564  53.0546 328.4878 0002241  48.3045 311.8136 15.06396832112722
STARLINK-1735           
1 46565U 20070AK  22288.48607617  .00004003  00000+0  28749-3 0  9995
2 46565  53.0550 328.6078 0002078  50.4006 309.7166 15.06400337112401
STARLINK-1740           
1 46566U 20070AL  22287.60883457  .00000213  00000+0  33227-4 0  9994
2 46566  53.0560 332.5398 0002093  46.4558 313.6605 15.06396997112572
STARLINK-1741           
1 46567U 20070AM  22288.43448202  .00000729  00000+0  67848-4 0  9990
2 46567  53.0566 328.8252 0001912  57.7545 302.3629 15.06404702112706
STARLINK-1747           
1 46569U 20070AP  22288.38287390  .00002060  00000+0  15711-3 0  9996
2 46569  53.0556 329.0631 0002133  41.7515 318.3637 15.06408643112396
STARLINK-1748           
1 46570U 20070AQ  22288.48414710  .00025965  00000+0  15369-2 0  9994
2 46570  53.0555 326.4916 0003935  65.7142 294.4260 15.11277495112747
STARLINK-1531           
1 46572U 20070AS  22288.55333670 -.00001859  00000+0 -10593-3 0  9992
2 46572  53.0547 348.2788 0002074  42.1602 317.9546 15.06393759112454
STARLINK-1650           
1 46573U 20070AT  22288.53075661 -.00000068  00000+0  14332-4 0  9990
2 46573  53.0564 333.3901 0002019  37.6661 322.4469 15.06395543112659
STARLINK-1660           
1 46574U 20070AU  22288.11887129  .00002635  00000+0  19568-3 0  9991
2 46574  53.0540 335.2586 0001957  40.8445 319.2691 15.06408898112581
STARLINK-1675           
1 46575U 20070AV  22287.77653216  .00000744  00000+0  68849-4 0  9997
2 46575  53.0549 311.7993 0002101  38.8145 321.2995 15.06399650112875
STARLINK-1677           
1 46576U 20070AW  22288.50958170  .00002080  00000+0  15846-3 0  9990
2 46576  53.0568 333.4937 0002240  42.2510 317.8652 15.06404380112648
STARLINK-1682           
1 46577U 20070AX  22288.53906586  .00002003  00000+0  15333-3 0  9994
2 46577  53.0546 333.3542 0001976  42.9767 317.1376 15.06406473112643
STARLINK-1683           
1 46578U 20070AY  22288.12210039  .00002192  00000+0  16601-3 0  9999
2 46578  53.0538 320.2927 0002009  47.1244 312.9913 15.06408398112493
STARLINK-1705           
1 46579U 20070AZ  22288.12624271  .00001269  00000+0  10403-3 0  9995
2 46579  53.0560 335.2193 0001425  60.0933 300.0198 15.06405162112567
STARLINK-1708           
1 46580U 20070BA  22288.43586979  .00001947  00000+0  14955-3 0  9992
2 46580  53.0563 333.8293 0002056  41.9752 318.1394 15.06400759112649
STARLINK-1712           
1 46581U 20070BB  22288.13592022  .00001216  00000+0  10051-3 0  9998
2 46581  53.0543 330.1781 0001986  44.1875 315.9272 15.06405052112654
STARLINK-1728           
1 46582U 20070BC  22288.12117419  .00001865  00000+0  14409-3 0  9992
2 46582  53.0563 330.2483 0001658  52.6178 307.4962 15.06400790112659
STARLINK-1729           
1 46583U 20070BD  22288.17093406  .00001592  00000+0  12574-3 0  9995
2 46583  53.0563 350.0205 0001674  60.6623 299.4533 15.06405513112397
STARLINK-1732           
1 46584U 20070BE  22288.12485718  .00000670  00000+0  63870-4 0  9994
2 46584  53.0562 330.2282 0001896  46.7441 313.3706 15.06402323112340
STARLINK-1736           
1 46585U 20070BF  22288.40773718  .00000632  00000+0  61333-4 0  9996
2 46585  53.0566 328.9482 0001755  54.7815 305.3338 15.06397225112390
STARLINK-1737           
1 46586U 20070BG  22288.53031460 -.00000483  00000+0 -13496-4 0  9995
2 46586  53.0532 328.3962 0002070  32.1606 327.9509 15.06402690112393
STARLINK-1746           
1 46588U 20070BJ  22288.37919228  .00003671  00000+0  26516-3 0  9992
2 46588  53.0548 329.0883 0002379  36.3687 323.7463 15.06410122112706
STARLINK-1749           
1 46589U 20070BK  22288.50451319 -.00001032  00000+0 -50334-4 0  9997
2 46589  53.0549 328.5229 0002505  37.9526 322.1639 15.06417460112717
STARLINK-1755           
1 46591U 20070BM  22288.42710512 -.00000742  00000+0 -30909-4 0  9997
2 46591  53.0559 328.8666 0001593  28.4322 331.6753 15.06416022112708
STARLINK-1715           
1 46671U 20073B   22288.52204233  .00000233  00000+0  34526-4 0  9990
2 46671  53.0561  58.6881 0001844  66.2285 293.8897 15.06408059110464
STARLINK-1716           
1 46672U 20073C   22288.07464001  .00001721  00000+0  13438-3 0  9993
2 46672  53.0567  55.4589 0001407  71.9458 288.1685 15.06401827110470
STARLINK-1717           
1 46673U 20073D   22288.45476621  .00002862  00000+0  21095-3 0  9992
2 46673  53.0535  68.8523 0001505  93.4092 266.7070 15.06403102110315
STARLINK-1718           
1 46674U 20073E   22288.16678058  .00004025  00000+0  28887-3 0  9998
2 46674  53.0536  55.0254 0001530  84.7178 275.3985 15.06413538110485
STARLINK-1720           
1 46675U 20073F   22287.63232465  .00004096  00000+0  29367-3 0  9990
2 46675  53.0540  57.4313 0001477  68.9606 291.1541 15.06406472109923
STARLINK-1766           
1 46677U 20073H   22288.49114388  .00003016  00000+0  22135-3 0  9997
2 46677  53.0565  53.5758 0001169  83.2688 276.8434 15.06390943110535
STARLINK-1773           
1 46679U 20073K   22288.56301407  .00001441  00000+0  11562-3 0  9999
2 46679  53.0559  33.2513 0001774  60.4615 299.6551 15.06412397110837
STARLINK-1774           
1 46680U 20073L   22288.49898023 -.00002933  00000+0 -17815-3 0  9994
2 46680  53.0536  68.5454 0001453  87.4402 272.6753 15.06392389110323
STARLINK-1775           
1 46681U 20073M   22288.13775909  .00001634  00000+0  12857-3 0  9999
2 46681  53.0561  70.1608 0001757  65.2302 294.8869 15.06403933110267
STARLINK-1776           
1 46682U 20073N   22288.49529503  .00000387  00000+0  44878-4 0  9999
2 46682  53.0543  68.5688 0001361  67.0717 293.0415 15.06403305110438
STARLINK-1780           
1 46684U 20073Q   22287.62126941  .00003876  00000+0  27894-3 0  9998
2 46684  53.0550  57.4885 0001328  74.3923 285.7213 15.06405676109926
STARLINK-1781           
1 46685U 20073R   22288.40590633 -.00001933  00000+0 -11095-3 0  9999
2 46685  53.0542  68.9391 0001522  87.8165 272.2998 15.06386944110301
STARLINK-1783           
1 46686U 20073S   22288.51645292 -.00000635  00000+0 -23742-4 0  9995
2 46686  53.0565  68.4269 0001118  79.2505 280.8610 15.06411401110325
STARLINK-1784           
1 46687U 20073T   22288.50773286  .00001195  00000+0  99105-4 0  9996
2 46687  53.0560  33.5080 0001844  41.2667 318.8461 15.06406114110814
STARLINK-1788           
1 46689U 20073V   22288.39946006  .00003452  00000+0  25047-3 0  9998
2 46689  53.0540  68.9823 0001385  73.3361 286.7780 15.06406064110303
STARLINK-1789           
1 46690U 20073W   22288.46625979  .00003620  00000+0  26169-3 0  9994
2 46690  53.0563  43.6990 0001424  91.7230 268.3922 15.06412342110667
STARLINK-1790           
1 46691U 20073X   22288.46534794  .00000467  00000+0  50252-4 0  9996
2 46691  53.0547  53.6913 0001329  74.4443 285.6693 15.06400421110521
STARLINK-1791           
1 46692U 20073Y   22288.18569429 -.00000099  00000+0  12220-4 0  9994
2 46692  53.0554  69.9377 0001354  98.2303 261.8840 15.06383715110279
STARLINK-1792           
1 46693U 20073Z   22288.13730020 -.00000207  00000+0  50184-5 0  9990
2 46693  53.0552  55.1792 0001438  75.9537 284.1612 15.06401426110466
STARLINK-1793           
1 46694U 20073AA  22288.55933808  .00001583  00000+0  12511-3 0  9993
2 46694  53.0541  33.2751 0001462  78.1785 281.9368 15.06403576110825
